EUTELSAT 8 WEST B       
1 40875U 15039B   25274.10044807 -.00000064  00000+0  00000+0 0  9995
2 40875   0.0678   4.8799 0003737 188.1261 205.2627  1.00271288 37059
EUTELSAT 9B             
1 41310U 16005A   25274.08933546  .00000064  00000+0  00000+0 0  9997
2 41310   0.0460  50.2542 0002748 172.2221 188.7909  1.00274389 35517
EUTELSAT 65 WEST A      
1 41382U 16014A   25274.27969330 -.00000275  00000+0  00000+0 0  9992
2 41382   0.0607  24.2037 0002189 161.5687 220.0133  1.00271970 34932
EUTELSAT 117 WEST B     
1 41589U 16038B   25273.69091339 -.00000010  00000+0  00000+0 0  9994
2 41589   0.0047  24.3380 0000244 233.0166 244.0512  1.00270577 34061
EUTELSAT 172B           
1 42741U 17029B   25273.89095941 -.00000006  00000+0  00000+0 0  9996
2 42741   0.0163 190.0111 0000951 279.6699  32.9767  1.00259169 31131
EUTELSAT 7C             
1 44334U 19034B   25274.09489315  .00000050  00000+0  00000+0 0  9997
2 44334   0.0651 182.4870 0003321 347.2905 241.4832  1.00271584  4232
EUTELSAT 5 WEST B       
1 44624U 19067A   25274.06996458 -.00000040  00000+0  00000+0 0  9993
2 44624   0.0652 353.6625 0003134 195.1999 201.3975  1.00272116 21830
EUTELSAT KONNECT        
1 45027U 20005B   25274.09475426  .00000051  00000+0  00000+0 0  9996
2 45027   0.0645  96.2556 0001452  78.5578 236.5834  1.00269860 21725
